ONEWEB-0558             
1 56059U 23043P   25310.66935924  .00000085  00000+0  17391-3 0  9998
2 56059  87.9168 288.3757 0002448  86.8164 273.3250 13.21829750128840
ONEWEB-0559             
1 56060U 23043Q   25310.65784573  .00000140  00000+0  30684-3 0  9993
2 56060  87.9170 288.3709 0002111  92.9020 267.2356 13.21827954128852
ONEWEB-0566             
1 56061U 23043R   25310.65127647  .00000026  00000+0  32504-4 0  9994
2 56061  87.9177 288.3694 0002270  89.6944 270.4450 13.21827318128830
ONEWEB-0568             
1 56062U 23043S   25310.64382983  .00000021  00000+0  20397-4 0  9992
2 56062  87.9003 273.0913 0001783  73.7790 286.3537 13.16595255129698
ONEWEB-0574             
1 56063U 23043T   25310.64467249  .00000006  00000+0 -17714-4 0  9995
2 56063  87.9172 288.3598 0001729  89.2518 270.8814 13.21827238128874
ONEWEB-0575             
1 56064U 23043U   25310.63748516 -.00000088  00000+0 -26411-3 0  9998
2 56064  87.8997 273.0944 0001459  80.1513 279.9782 13.16594917129683
ONEWEB-0576             
1 56065U 23043V   25310.46651734 -.00000011  00000+0 -61795-4 0  9996
2 56065  87.9006 273.1276 0001754  77.5582 282.5745 13.16594567129656
ONEWEB-0577             
1 56066U 23043W   25310.62484229 -.00000062  00000+0 -19511-3 0  9992
2 56066  87.9002 273.0958 0001193  83.2039 276.9228 13.16594401129703
